[{"OBJECT_NAME":"STARLINK-30066","OBJECT_ID":"2023-067S","EPOCH":"2026-03-09T21:23:24.849312","MEAN_MOTION":15.27575006,"ECCENTRICITY":0.00015432,"INCLINATION":43.0001,"RA_OF_ASC_NODE":269.6797,"ARG_OF_PERICENTER":272.4646,"MEAN_ANOMALY":87.6029,"EPHEMERIS_TYPE":0,"CLASSIFICATION_TYPE":"U","NORAD_CAT_ID":56704,"ELEMENT_SET_NO":999,"REV_AT_EPOCH":15573,"BSTAR":5.785909e-6,"MEAN_MOTION_DOT":-1.03e-6,"MEAN_MOTION_DDOT":0},{"OBJECT_NAME":"OBJECT E","OBJECT_ID":"2024-174E","EPOCH":"2026-03-09T23:40:24.424320","MEAN_MOTION":15.26241811,"ECCENTRICITY":0.00122518,"INCLINATION":97.4515,"RA_OF_ASC_NODE":80.1669,"ARG_OF_PERICENTER":217.7524,"MEAN_ANOMALY":142.2856,"EPHEMERIS_TYPE":0,"CLASSIFICATION_TYPE":"U","NORAD_CAT_ID":61242,"ELEMENT_SET_NO":999,"REV_AT_EPOCH":8070,"BSTAR":0.00031155901,"MEAN_MOTION_DOT":8.013e-5,"MEAN_MOTION_DDOT":0}]
